[
    {
        "Altitude(m)": 572971.8513331295,
        "Argument of Periapsis(deg)": -0.007534386927657468,
        "Eccentricity": 0.0,
        "Inclination(deg)": 97.0,
        "Latitude(deg)": -25.413709839250266,
        "Longitude(deg)": -67.43497309950438,
        "Mean Anomaly(deg)": -25.357352243604208,
        "RAAN(deg)": 30.00198235120617,
        "Satellite Name": "Starlink Shell 3 1694",
        "Satellite Number": 1694,
        "Semi-Major Axis(m)": 6938478.169268562,
        "Time(s)": 190
    },
    {
        "Altitude(m)": 572747.4098720746,
        "Argument of Periapsis(deg)": -0.007930933608060494,
        "Eccentricity": 0.0,
        "Inclination(deg)": 97.0,
        "Latitude(deg)": -24.792335695142594,
        "Longitude(deg)": -67.56933703855799,
        "Mean Anomaly(deg)": -24.731876045899146,
        "RAAN(deg)": 30.002086685480176,
        "Satellite Name": "Starlink Shell 3 1694",
        "Satellite Number": 1694,
        "Semi-Major Axis(m)": 6938478.169268562,
        "Time(s)": 200
    },
    {
        "Altitude(m)": 572525.3478027185,
        "Argument of Periapsis(deg)": -0.008327480288463517,
        "Eccentricity": 0.0,
        "Inclination(deg)": 97.0,
        "Latitude(deg)": -24.170826364520263,
        "Longitude(deg)": -67.702788278275,
        "Mean Anomaly(deg)": -24.10639984819409,
        "RAAN(deg)": 30.002191019754186,
        "Satellite Name": "Starlink Shell 3 1694",
        "Satellite Number": 1694,
        "Semi-Major Axis(m)": 6938478.169268562,
        "Time(s)": 210
    },
    {
        "Altitude(m)": 572305.7453155265,
        "Argument of Periapsis(deg)": -0.008724026968866542,
        "Eccentricity": 0.0,
        "Inclination(deg)": 97.0,
        "Latitude(deg)": -23.549185104024517,
        "Longitude(deg)": -67.83536143466726,
        "Mean Anomaly(deg)": -23.480923650489032,
        "RAAN(deg)": 30.002295354028195,
        "Satellite Name": "Starlink Shell 3 1694",
        "Satellite Number": 1694,
        "Semi-Major Axis(m)": 6938478.169268562,
        "Time(s)": 220
    },
    {
        "Altitude(m)": 572088.6813173405,
        "Argument of Periapsis(deg)": -0.009120573649269567,
        "Eccentricity": 0.0,
        "Inclination(deg)": 97.0,
        "Latitude(deg)": -22.927415139062596,
        "Longitude(deg)": -67.96709007240756,
        "Mean Anomaly(deg)": -22.855447452783974,
        "RAAN(deg)": 30.0023996883022,
        "Satellite Name": "Starlink Shell 3 1694",
        "Satellite Number": 1694,
        "Semi-Major Axis(m)": 6938478.169268562,
        "Time(s)": 230
    },
    {
        "Altitude(m)": 571874.2333953815,
        "Argument of Periapsis(deg)": -0.009517120329672592,
        "Eccentricity": 0.0,
        "Inclination(deg)": 97.0,
        "Latitude(deg)": -22.30551966651214,
        "Longitude(deg)": -68.09800625337725,
        "Mean Anomaly(deg)": -22.229971255078965,
        "RAAN(deg)": 30.00250402257621,
        "Satellite Name": "Starlink Shell 3 1694",
        "Satellite Number": 1694,
        "Semi-Major Axis(m)": 6938478.169268562,
        "Time(s)": 240
    },
    {
        "Altitude(m)": 571662.4777817741,
        "Argument of Periapsis(deg)": -0.009913667010075618,
        "Eccentricity": 0.0,
        "Inclination(deg)": 97.0,
        "Latitude(deg)": -21.6835018572439,
        "Longitude(deg)": -68.22814159544467,
        "Mean Anomaly(deg)": -21.604495057373907,
        "RAAN(deg)": 30.002608356850217,
        "Satellite Name": "Starlink Shell 3 1694",
        "Satellite Number": 1694,
        "Semi-Major Axis(m)": 6938478.169268562,
        "Time(s)": 250
    },
    {
        "Altitude(m)": 571453.4893188102,
        "Argument of Periapsis(deg)": -0.010310213690478642,
        "Eccentricity": 0.0,
        "Inclination(deg)": 97.0,
        "Latitude(deg)": -21.0613648584727,
        "Longitude(deg)": -68.35752681589445,
        "Mean Anomaly(deg)": -20.979018859668898,
        "RAAN(deg)": 30.002712691124227,
        "Satellite Name": "Starlink Shell 3 1694",
        "Satellite Number": 1694,
        "Semi-Major Axis(m)": 6938478.169268562,
        "Time(s)": 260
    },
    {
        "Altitude(m)": 571247.3414247918,
        "Argument of Periapsis(deg)": -0.010706760370881667,
        "Eccentricity": 0.0,
        "Inclination(deg)": 97.0,
        "Latitude(deg)": -20.439111795946637,
        "Longitude(deg)": -68.48619127254086,
        "Mean Anomaly(deg)": -20.353542661963793,
        "RAAN(deg)": 30.002817025398244,
        "Satellite Name": "Starlink Shell 3 1694",
        "Satellite Number": 1694,
        "Semi-Major Axis(m)": 6938478.169268562,
        "Time(s)": 270
    },
    {
        "Altitude(m)": 571044.1060606226,
        "Argument of Periapsis(deg)": -0.011103307051284692,
        "Eccentricity": 0.0,
        "Inclination(deg)": 97.0,
        "Latitude(deg)": -19.816745775986174,
        "Longitude(deg)": -68.61416401554692,
        "Mean Anomaly(deg)": -19.72806646425878,
        "RAAN(deg)": 30.00292135967225,
        "Satellite Name": "Starlink Shell 3 1694",
        "Satellite Number": 1694,
        "Semi-Major Axis(m)": 6938478.169268562,
        "Time(s)": 280
    },
    {
        "Altitude(m)": 570843.8536970752,
        "Argument of Periapsis(deg)": -0.011499853731687715,
        "Eccentricity": 0.0,
        "Inclination(deg)": 97.0,
        "Latitude(deg)": -19.194269887378788,
        "Longitude(deg)": -68.74147332433864,
        "Mean Anomaly(deg)": -19.10259026655378,
        "RAAN(deg)": 30.00302569394626,
        "Satellite Name": "Starlink Shell 3 1694",
        "Satellite Number": 1694,
        "Semi-Major Axis(m)": 6938478.169268562,
        "Time(s)": 290
    },
    {
        "Altitude(m)": 570646.6532827413,
        "Argument of Periapsis(deg)": -0.011896400412090741,
        "Eccentricity": 0.0,
        "Inclination(deg)": 97.0,
        "Latitude(deg)": -18.571687203140215,
        "Longitude(deg)": -68.86814624261761,
        "Mean Anomaly(deg)": -18.47711406884872,
        "RAAN(deg)": 30.00313002822027,
        "Satellite Name": "Starlink Shell 3 1694",
        "Satellite Number": 1694,
        "Semi-Major Axis(m)": 6938478.169268562,
        "Time(s)": 300
    },
    {
        "Altitude(m)": 570452.5722127765,
        "Argument of Periapsis(deg)": -0.012292947092493765,
        "Eccentricity": 0.0,
        "Inclination(deg)": 97.0,
        "Latitude(deg)": -17.94900078214972,
        "Longitude(deg)": -68.99420962446645,
        "Mean Anomaly(deg)": -17.851637871143662,
        "RAAN(deg)": 30.003234362494275,
        "Satellite Name": "Starlink Shell 3 1694",
        "Satellite Number": 1694,
        "Semi-Major Axis(m)": 6938478.169268562,
        "Time(s)": 310
    },
    {
        "Altitude(m)": 570261.676298369,
        "Argument of Periapsis(deg)": -0.012689493772896788,
        "Eccentricity": 0.0,
        "Inclination(deg)": 97.0,
        "Latitude(deg)": -17.326213670665414,
        "Longitude(deg)": -69.11968966591189,
        "Mean Anomaly(deg)": -17.226161673438604,
        "RAAN(deg)": 30.003338696768285,
        "Satellite Name": "Starlink Shell 3 1694",
        "Satellite Number": 1694,
        "Semi-Major Axis(m)": 6938478.169268562,
        "Time(s)": 320
    },
    {
        "Altitude(m)": 570074.0297369811,
        "Argument of Periapsis(deg)": -0.013086040453299813,
        "Eccentricity": 0.0,
        "Inclination(deg)": 97.0,
        "Latitude(deg)": -16.703328903727705,
        "Longitude(deg)": -69.24461143492583,
        "Mean Anomaly(deg)": -16.60068547573355,
        "RAAN(deg)": 30.003443031042295,
        "Satellite Name": "Starlink Shell 3 1694",
        "Satellite Number": 1694,
        "Semi-Major Axis(m)": 6938478.169268562,
        "Time(s)": 330
    },
    {
        "Altitude(m)": 569889.6950833732,
        "Argument of Periapsis(deg)": -0.01348258713370284,
        "Eccentricity": 0.0,
        "Inclination(deg)": 97.0,
        "Latitude(deg)": -16.080349506457978,
        "Longitude(deg)": -69.36899991283684,
        "Mean Anomaly(deg)": -15.975209278028483,
        "RAAN(deg)": 30.0035473653163,
        "Satellite Name": "Starlink Shell 3 1694",
        "Satellite Number": 1694,
        "Semi-Major Axis(m)": 6938478.169268562,
        "Time(s)": 340
    },
    {
        "Altitude(m)": 569708.7332214558,
        "Argument of Periapsis(deg)": -0.013879133814105863,
        "Eccentricity": 0.0,
        "Inclination(deg)": 97.0,
        "Latitude(deg)": -15.45727849525728,
        "Longitude(deg)": -69.49287952149797,
        "Mean Anomaly(deg)": -15.34973308032353,
        "RAAN(deg)": 30.00365169959031,
        "Satellite Name": "Starlink Shell 3 1694",
        "Satellite Number": 1694,
        "Semi-Major Axis(m)": 6938478.169268562,
        "Time(s)": 350
    },
    {
        "Altitude(m)": 569531.2033369384,
        "Argument of Periapsis(deg)": -0.01427568049450889,
        "Eccentricity": 0.0,
        "Inclination(deg)": 97.0,
        "Latitude(deg)": -14.834118878911127,
        "Longitude(deg)": -69.61627364917254,
        "Mean Anomaly(deg)": -14.724256882618477,
        "RAAN(deg)": 30.00375603386432,
        "Satellite Name": "Starlink Shell 3 1694",
        "Satellite Number": 1694,
        "Semi-Major Axis(m)": 6938478.169268562,
        "Time(s)": 360
    },
    {
        "Altitude(m)": 569357.1628908196,
        "Argument of Periapsis(deg)": -0.014672227174911913,
        "Eccentricity": 0.0,
        "Inclination(deg)": 97.0,
        "Latitude(deg)": -14.21087365960808,
        "Longitude(deg)": -69.73920568809403,
        "Mean Anomaly(deg)": -14.098780684913413,
        "RAAN(deg)": 30.003860368138326,
        "Satellite Name": "Starlink Shell 3 1694",
        "Satellite Number": 1694,
        "Semi-Major Axis(m)": 6938478.169268562,
        "Time(s)": 370
    }
]